FENGYUN 3D              
1 43010U 17072A   22021.42570534  .00000019  00000-0  30376-4 0  9995
2 43010  98.7994 326.8892 0001818 356.7884   3.3276 14.19178192216916
